LEMUR-1                 
1 40044U 14033AL  19027.88880960  .00000077  00000-0  18995-4 0  9999
2 40044  97.7773 261.1457 0058732 194.7510 165.1988 14.74050556247684
LEMUR-2-JOEL            
1 40932U 15052C   19024.28667362  .00000828  00000-0  24621-4 0  9994
2 40932   6.0110   1.5289 0014031 284.3669  75.4901 14.77778955179845
LEMUR-2-CHRIS           
1 40933U 15052D   19027.33290157  .00000829  00000-0  24483-4 0  9995
2 40933   6.0095 337.6965 0014217 331.2019  28.7325 14.77939597180315
LEMUR-2-PETER           
1 40935U 15052F   19021.46137639  .00000932  00000-0  40395-4 0  9995
2 40935   6.0106  31.9470 0009695 225.7378 134.1954 14.77068315179313
LEMUR-2-XIAOQING        
1 41871U 16062C   19027.86495968  .00000507  00000-0  33506-4 0  9993
2 41871  51.6409 159.0531 0005445 202.6972 157.3766 15.25096998120864
LEMUR-2-SOKOLSKY        
1 41872U 16062D   19027.49907273  .00001988  00000-0  92330-4 0  9994
2 41872  51.6877 163.2958 0002925 335.4792  24.6047 15.24889970120798
LEMUR-2-ANUBHAVTHAKUR   
1 41873U 16062E   19027.58809023  .00001407  00000-0  73682-4 0  9994
2 41873  51.6306 167.8478 0004877 150.3434 209.7821 15.22690795120696
LEMUR-2-WINGO           
1 41874U 16062F   19027.58665476  .00002442  00000-0  11125-3 0  9990
2 41874  51.6500 163.0124 0013295 136.3840 223.8192 15.24589117120772
LEMUR-2-SATCHMO         
1 41991U 17008AV  19027.47308729  .00000928  00000-0  41404-4 0  9995
2 41991  97.4219  94.9230 0006089 294.5067  65.5535 15.23866860107553
LEMUR-2-MIA-GRACE       
1 41992U 17008AW  19027.44923632  .00001312  00000-0  55964-4 0  9993
2 41992  97.4230  95.4578 0005908 292.8247  67.2366 15.24705171107580
LEMUR-2-SMITA-SHARAD    
1 41993U 17008AX  19027.66498566  .00000974  00000-0  43090-4 0  9991
2 41993  97.4217  95.2698 0006004 292.9515  67.1089 15.24053109107593
LEMUR-2-SPIRE-MINIONS   
1 41994U 17008AY  19027.46967660  .00001311  00000-0  55974-4 0  9996
2 41994  97.4227  95.4063 0005945 291.5910  68.4694 15.24659494107584
LEMUR-2-RDEATON         
1 41995U 17008AZ  19027.11638080  .00000990  00000-0  43660-4 0  9991
2 41995  97.4219  94.7946 0007271 310.6538  49.4066 15.24115866108191
LEMUR-2-NOGUECORREIG    
1 41996U 17008BA  19027.39897921  .00001189  00000-0  51157-4 0  9994
2 41996  97.4243  95.4218 0007077 308.8667  51.1938 15.24582093107473
LEMUR-2-JOBANPUTRA      
1 41997U 17008BB  19027.60130248  .00001373  00000-0  58286-4 0  9996
2 41997  97.4240  95.7635 0007048 307.6282  52.4315 15.24766046107605
LEMUR-2-TACHIKOMA       
1 41998U 17008BC  19027.61047555  .00000971  00000-0  43028-4 0  9997
2 41998  97.4217  95.1943 0007160 309.5017  50.5587 15.24012025107508
LEMUR-2-ANGELA          
1 42752U 17019B   19027.63604994  .00001571  00000-0  65855-4 0  9995
2 42752  51.6420  92.3665 0009593 291.6964  68.2995 15.29868415 91462
LEMUR-2-JENNYBARNA      
1 42753U 17019C   19027.64609052  .00002767  00000-0  10381-3 0  9998
2 42753  51.6402  90.2322 0009266 292.9272  67.0731 15.30736165 91444
LEMUR-2-ROBMOORE        
1 42754U 17019D   19027.60375117  .00001047  00000-0  48156-4 0  9999
2 42754  51.6417  92.8858 0009487 294.1078  65.8910 15.29765194 91432
LEMUR-2-SPIROVISION     
1 42755U 17019E   19027.75359065  .00001976  00000-0  77486-4 0  9999
2 42755  51.6430  89.9713 0008877 291.5111 160.8318 15.30795472 91371
LEMUR-2-SHAINAJOHL      
1 42771U 17036G   19027.69272014  .00001128  00000-0  52824-4 0  9995
2 42771  97.3726  87.9409 0014744   5.1816 354.9550 15.21680575 88631
LEMUR-2-XUENITERENCE    
1 42772U 17036H   19027.47063251  .00001277  00000-0  59153-4 0  9990
2 42772  97.3720  87.7541 0014374   6.0972 354.0436 15.21809913 88603
LEMUR-2-LUCYBRYCE       
1 42773U 17036J   19027.10571431  .00000727  00000-0  34740-4 0  9999
2 42773  97.3744  87.6871 0014040   6.5109 353.6308 15.22085503 88562
LEMUR-2-KUNGFOO         
1 42774U 17036K   19027.44610305  .00001093  00000-0  51042-4 0  9992
2 42774  97.3733  87.8163 0014118   6.0728 354.0676 15.21827603 88595
LEMUR-2-LYNSEY-SYMO     
1 42779U 17036Q   19027.58018597  .00001423  00000-0  63528-4 0  9996
2 42779  97.3748  88.7533 0012262  14.5701 345.5887 15.22932166 88658
LEMUR-2-LISASAURUS      
1 42780U 17036R   19027.59383826  .00000990  00000-0  45697-4 0  9994
2 42780  97.3736  88.5370 0012390  14.9213 345.2387 15.22478612 88651
LEMUR-2-SAM-AMELIA      
1 42781U 17036S   19027.57320995  .00000741  00000-0  34632-4 0  9992
2 42781  97.3746  88.7372 0012314  14.6616 345.4975 15.22800622 88652
LEMUR-2-MCPEAKE         
1 42782U 17036T   19027.58897977  .00001068  00000-0  48760-4 0  9993
2 42782  97.3745  88.7368 0012109  14.7054 345.4532 15.22703808 88653
LEMUR-2-GREENBERG       
1 42837U 17042N   19027.24322699  .00000398  00000-0  44816-4 0  9991
2 42837  97.5817 286.4578 0013291 165.0711 195.0903 14.91718518 83755
LEMUR-2-ANDIS           
1 42838U 17042P   19027.77075073  .00000294  00000-0  34508-4 0  9993
2 42838  97.5816 286.9844 0013425 163.3178 196.8486 14.91743741 83833
LEMUR-2-MONSON          
1 42839U 17042Q   19027.77717345  .00000228  00000-0  27987-4 0  9999
2 42839  97.5817 286.9742 0013150 162.7909 197.3759 14.91618755 83837
LEMUR-2-FURIAUS         
1 42840U 17042R   19027.66798097  .00000436  00000-0  48542-4 0  9993
2 42840  97.5816 286.9606 0013376 163.3929 196.7731 14.91768219 83818
LEMUR-2-PETERG          
1 42841U 17042S   19027.67250099  .00000391  00000-0  43902-4 0  9995
2 42841  97.5818 287.1153 0013009 160.8675 199.3036 14.91974433 83830
LEMUR-2-DEMBITZ         
1 42842U 17042T   19027.66569066  .00000473  00000-0  51898-4 0  9996
2 42842  97.5817 287.1128 0013051 161.6210 198.5483 14.91997189 83833
LEMUR-2-ZACHARY         
1 42845U 17042W   19027.25291892  .00000574  00000-0  61521-4 0  9999
2 42845  97.5766 286.5269 0013154 167.0033 193.1528 14.92227946 83777
LEMUR-2-ARTFISCHER      
1 42881U 17042BJ  19027.63357255  .00003774  00000-0  10385-3 0  9993
2 42881  96.9586 277.4828 0012974  21.3590 338.8195 15.37667668 86083
LEMUR-2-ROCKETJONAH     
1 43041U 17071E   19027.55271015  .00004565  00000-0  11481-3 0  9991
2 43041  51.6395  24.0341 0000114 111.4809 248.6189 15.41983428 66507
LEMUR-2-YONGLIN         
1 43045U 17071J   19027.59787724  .00005509  00000-0  13350-3 0  9994
2 43045  51.6399  22.8532 0004265 356.4431   3.6524 15.42689333 64257
LEMUR-2-KEVIN           
1 43046U 17071K   19027.43516989  .00003160  00000-0  83012-4 0  9995
2 43046  51.6405  24.7838 0003837 356.3131   3.7826 15.41777040 64210
LEMUR-2-BRIANDAVIE      
1 43047U 17071L   19027.44992159  .00004635  00000-0  11769-3 0  9991
2 43047  51.6394  25.5795 0003366  37.7598 322.3623 15.41665099 64195
LEMUR-2-ROMACOSTE       
1 43048U 17071M   19027.79505239  .00005685  00000-0  14019-3 0  9996
2 43048  51.6401  23.4138 0003253  39.2195 320.9026 15.42089975 64250
LEMUR-2-MCCULLAGH       
1 43051U 17071Q   19027.44083842  .00004069  00000-0  10298-3 0  9993
2 43051  51.6399  24.7923 0001146 134.5503 225.5576 15.42106407 64156
LEMUR-2-DUNLOP          
1 43053U 17071S   19027.41985123  .00003747  00000-0  97757-4 0  9993
2 43053  51.6395  26.1220 0001373 131.3796 228.7307 15.41409434 64142
LEMUR-2-LIU-POU-CHUN    
1 43054U 17071T   19027.56225094  .00003538  00000-0  91213-4 0  9993
2 43054  51.6397  24.1019 0000278  55.8861 304.2151 15.41954353 64181
LEMUR-2-MCCAFFERTY      
1 43123U 18004N   19027.44808357  .00001369  00000-0  59970-4 0  9997
2 43123  97.5079  95.5691 0010673  39.2347 320.9661 15.23707290 57850
LEMUR-2-PETERWEBSTER    
1 43124U 18004P   19027.60177257  .00001538  00000-0  67409-4 0  9998
2 43124  97.5079  95.6710 0010806  37.7397 322.4596 15.23501222 57873
LEMUR-2-BROWNCOW        
1 43125U 18004Q   19027.24425664  .00001697  00000-0  73567-4 0  9995
2 43125  97.5078  95.3736 0010688  40.4621 319.7409 15.23729849 57821
LEMUR-2-DAVEWILSON      
1 43126U 18004R   19027.44854012  .00001512  00000-0  66114-4 0  9997
2 43126  97.5079  95.5703 0010673  40.2406 319.9618 15.23612664 57855
LEMUR-2-MARSHALL        
1 43165U 18010C   19027.48072945  .00001612  00000-0  74039-4 0  9994
2 43165  82.9196 151.5258 0032125  23.7470 336.5239 15.19155181 56367
LEMUR-2-TALLHAMN-ATC    
1 43167U 18010E   19027.52728321  .00000992  00000-0  47713-4 0  9996
2 43167  82.9227 152.6045 0025693  32.7250 327.5569 15.17264131 56302
LEMUR-2-JIN-LUEN        
1 43182U 18014C   19027.68995256  .00000899  00000-0  84872-4 0  9990
2 43182  97.7118 297.5582 0015533 120.5033 239.7724 14.96110167 53875
LEMUR-2-URAMCHANSOL     
1 43183U 18014D   19027.27997758  .00000647  00000-0  62496-4 0  9994
2 43183  97.7115 297.1716 0015260 122.3844 237.8856 14.96149371 53813
LEMUR-2-KADI            
1 43184U 18014E   19027.80961291  .00000491  00000-0  48629-4 0  9996
2 43184  97.7114 297.7074 0015142 121.6505 238.6195 14.96177836 53891
LEMUR-2-THENICKMOLO     
1 43185U 18014F   19027.80343634  .00000248  00000-0  27096-4 0  9997
2 43185  97.7115 297.7155 0014779 121.9222 238.3439 14.96164905 53898
LEMUR-2-VU              
1 43558U 18046E   19027.41436264  .00001523  00000-0  66496-4 0  9999
2 43558  51.6430  18.5482 0007409 285.6892  74.3270 15.28639656 29795
LEMUR-2-ALEXANDER       
1 43559U 18046F   19027.54402797  .00001462  00000-0  64291-4 0  9991
2 43559  51.6428  17.9140 0007406 286.2015  73.8150 15.28661799 29590
LEMUR-2-YUASA           
1 43560U 18046G   19027.80928879  .00001021  00000-0  48756-4 0  9995
2 43560  51.6429  16.6793 0007886 301.9625  58.0588 15.28637595 29853
LEMUR-2-TOMHENDERSON    
1 43561U 18046H   19027.41470236  .00001026  00000-0  48896-4 0  9992
2 43561  51.6428  18.5467 0007922 300.5994  59.4204 15.28669587 29358
LEMUR-2-ZUPANSKI        
1 43695U 18088F   19027.49138630  .00001226  00000-0  55134-4 0  9998
2 43695  85.0307  52.0039 0018104  14.4569 345.7186 15.19834421 11727
